OOV-CUBE (TUBSAT-30)    
1 60240U 24128F   26063.90356539  .00004636  00000+0  35460-3 0  9995
2 60240  61.9939 229.0603 0054923 111.3663 249.3301 15.02205334 90441
